STARLINK-31630          
1 59271U 24050T   26068.56880718 -.00002063  00000+0 -57526-4 0  9991
2 59271  53.1600 168.5079 0001409  92.3163 267.7999 15.30200807110710
STARLINK-35745          
1 66271U 25247G   26068.63789891  .00035079  00000+0  11911-2 0  9993
2 66271  53.1585 191.8333 0001112  68.6478 291.4642 15.30194771 21079
